id;name;middlename;passport serial;passport number;postcode;address;address life;company;jobname;phone;email;photo;description
1;Alonso@Hopkins;Caleb;!2303;}160716;760832;452 Cobblestone St.;;Global Gillette;Reporter;(970 383/8933;skippy@icloud.com;001-happy-18.png;
2;Kaydence@Sellers;Susannah;!5563;}160745;807042;Hyattsville, MD 20782;;Coca-Cola;Elementary School Teacher;(867 708/4447;isotopian@sbcglobal.net;002-cool-5.png;
3;Finnegan@Bray;Brighton;!3719;}717453;83282;9648 Philmont Lane;;Harley-Davidson Motor Company;Childcare worker;(221 428/7850;isaacson@att.net;003-happy-17.png;
4;Gideon@Arias;Varian;!5810;}721066;768289;Hanover Park, IL 60133;;Corona;Loan Officer;(786 274/7872;mugwump@mac.com;004-surprised-9.png;
5;Case@Schultz;Aiden;!2208;}937197;780691;8438 North Fairground Court;;Johnnie Walker;Drafter;(365 752/6445;mcmillan@optonline.net;005-shocked-4.png;
6;Pierre@Alvarado;Harriet;!7184;}275223;845839;Woodstock, GA 30188;;SAP;Cost Estimator;(446 639/6043;dinther@hotmail.com;006-shocked-3.png;
7;Esteban@Bell;Cameron;!9563;}574791;94009;148 Catherine Dr.;;Smirnoff;Clinical Laboratory Technician;(555 444/8316;pizza@yahoo.com;007-nervous-2.png;
8;Spencer@Anderson;Meaghan;!9008;}379623;674783;Lithonia, GA 30038;;Toyota Motor Corporation;Electrician;(392 682/4442;murty@outlook.com;008-nervous-1.png;
9;Seth@Sweeney;Jax;!3810;}530169;845247;708 6th Drive;;Caterpillar Inc.;Referee;(836 429/0386;aegreene@me.com;009-angry-6.png;
10;Lincoln@Mason;Emeline;!5387;}689700;252988;Egg Harbor Township, NJ 08234;;Avon;Judge;(283 945/3092;jnolan@aol.com;010-drool.png;
11;Lindsay@Curtis;Syllable;!1152;}481271;777867;8992 Union Rd.;;Budweiser Stag Brewing Company;Security Guard;(621 359/3669;msherr@optonline.net;011-tired-2.png;
12;Noah@Daugherty;Thomas;!2924;}764363;504859;Villa Park, IL 60181;;IBM;Budget analyst;(440 561/0314;ranasta@icloud.com;012-tongue-7.png;
13;Darien@Sellers;Nadeen;!5110;}869140;779085;12 Windsor St.;;Chase;Painter;(331 918/2434;punkis@hotmail.com;013-tongue-6.png;
14;Jaylene_Schneider;Xavier;!6948;}84332;144573;Waynesboro, PA 17268;;NTT Data;Occupational Therapist;(944 627/0176;pereinar@yahoo.com;014-tongue-5.png;
15;Leonard_Schmitt;Vincent;!7045;}366325;864380;549 Lake View Dr.;;Intel Corporation;Physical Therapist;(621 405/7195;tskirvin@mac.com;015-smile-1.png;
16;Maya_Richardson;Heath;!7100;}947091;265294;Garland, TX 75043;;Sony;Photographer;(837 639/1067;kewley@sbcglobal.net;016-sleeping-1.png;
17;Thalia_Delacruz;Caprice;!9169;}340517;137788;314 N. Gulf Lane;;Tesco Corporation;Cashier;(769 610/7084;ehood@icloud.com;017-nervous.png;
18;Maci_Baird;Dustin;!3097;}188032;340075;Hollywood, FL 33020;;Microsoft;Educator;(308 686/7622;ilial@aol.com;018-surprised-8.png;
19;Ace_Stephenson;Amity;!7796;}170860;531408;3 Cooper Street;;McDonald's;Professional athlete;(319 872/3287;elmer@comcast.net;019-tongue-4.png;
20;Robert_Castro;Isaiah;!5001;}550223;912556;Coventry, RI 02816;;VISA;Janitor;(341 620/5356;scarolan@live.com;020-happy-16.png;
21;Efrain_Stark;Jared;!4204;}741281;838795;53 E. Marvon St.;;Zara;Massage Therapist;(266 561/7456;bwcarty@yahoo.com;021-wink-1.png;
22;Katelynn_Montgomery;Drake;!1209;}731500;520544;Jamaica Plain, MA 02130;;Morgan Stanley;Psychologist;(408 673/0059;facet@outlook.com;022-laughing-2.png;
23;Sammy_Freeman;Lane;!1085;}749551;902946;15 Indian Summer St.;;Mitsubishi;IT Manager;(906 825/5704;metzzo@att.net;023-laughing-1.png;
24;Jamal_Stokes;Rayleen;!7125;}277444;684826;Canton, GA 30114;;Audi;Anthropologist;(866 732/4338;slaff@aol.com;024-sweat-1.png;
25;Lilliana_Bell;Quintin;!4858;}465200;299125;1 Rockville Ave.;;eBay;Executive Assistant;(744 876/9856;caidaperl@mac.com;025-happy-15.png;
26;Jaidyn_Ali;Kaitlin;!9255;}131955;623940;Piedmont, SC 29673;;Ralph Lauren Corporation;Artist;(872 230/3310;jigsaw@verizon.net;026-happy-14.png;
27;Solomon_Nixon;Jolee;!3965;}425455;243802;154 Galvin Ave.;;Wal-Mart;Mechanical Engineer;(572 467/2895;hoyer@optonline.net;027-laughing.png;
28;Isaias_Mcdowell;Kalan;!4368;}409875;697427;Savannah, GA 31404;;Panasonic Corporation;Firefighter;(451 768/6075;danneng@msn.com;028-happy-13.png;
29;Neveah_Dean;Evony;!9283;}299023;503601;56 Annadale Dr.;;Nike, Inc.;Carpenter;(555 802/6671;burniske@outlook.com;029-happy-12.png;
30;Koen_Waters;Abraham;!4065;}664366;732787;Lititz, PA 17543;;Nissan Motor Co., Ltd.;Actuary;(833 460/5788;jipsen@sbcglobal.net;030-crying-8.png;
31;Cale_Odom;Ann;!4877;}252066;650754;7285 Locust Drive;;MTV;Compliance Officer;(234 895/8976;agapow@hotmail.com;031-crying-7.png;
32;Layton_Ruiz;Aryn;!8656;}317830;924502;Jackson Heights, NY 11372;;Cartier SA;Computer Systems Administrator;(682 469/8567;mobileip@icloud.com;032-bored.png;
33;Monserrat_Patrick;Coralie;!1583;}513755;670778;935 West Ave.;;Nescaf_;HR Specialist;(682 555/7940;mglee@yahoo.com;033-cool-4.png;
34;Kamden_Hardin;Ray;!2179;}517256;939472;Columbus, GA 31904;;Allianz;Recreation & Fitness Worker;(575 985/7625;animats@yahoo.ca;034-angry-5.png;
35;Janiya_Neal;Irene;!5244;}495362;172365;720 Summerhouse Street;;Ferrari S.p.A.;Financial Advisor;(313 507/8540;drewf@me.com;035-sad-14.png;
36;Cornelius_Winters;James;!9584;}586486;424571;Maryville, TN 37803;;Kleenex;Auto Mechanic;(608 783/0267;slanglois@msn.com;036-angry-4.png;
37;Kaden_Love;Neil;!1850;}453434;478037;139 N. Grand St.;;Tiffany & Co.;Web Developer;(688 656/7203;notaprguy@verizon.net;037-happy-11.png;
38;Finley_Mills;Ace;!4286;}976952;843098;Irwin, PA 15642;;3M;Civil Engineer;(530 402/7915;yruan@sbcglobal.net;038-angry-3.png;
39;Markus_Henry;Edward;!2767;}784535;900432;400 Amerige St.;;Shell Oil Company;Chemist;(262 635/2834;bmorrow@me.com;039-cyclops-1.png;
40;Romeo_Singleton;Preston;!7677;}990002;425361;Evans, GA 30809;;Adobe Systems;Recreational Therapist;(487 957/3536;adillon@verizon.net;040-surprised-7.png;
41;Ethen_Glenn;Kate;!6342;}37367;815003;225 Iroquois St.;;IKEA;Microbiologist;(918 285/4740;kimvette@me.com;041-thinking-2.png;
42;Abbey_Gordon;Berlynn;!8909;}475995;60302;Vienna, VA 22180;;Nokia;Event Planner;(412 706/8937;emcleod@outlook.com;042-book.png;
43;Presley_Vasquez;Sheridan;!9144;}720543;529399;44 Ocean Ave.;;Sprite;Coach;(454 353/8089;stomv@aol.com;043-baby-boy.png;
44;Alexis_Levine;Juan;!6021;}143882;191499;Long Beach, NY 11561;;Xerox;Radiologic Technologist;(623 716/7237;msusa@comcast.net;044-dead-1.png;
45;Steve_Miles;Lydon;!4607;}499410;292234;192 West Foster St.;;Samsung Group;Market Research Analyst;(594 615/8545;dougj@yahoo.com;045-star.png;
46;Kayley_Cuevas;Tyson;!4676;}263545;194258;Long Branch, NJ 07740;;Google;Housekeeper;(647 885/2301;jlbaumga@gmail.com;046-dubious.png;
47;Annabelle_Hebert;Annora;!6571;}27113;415905;43 SE. Cross Court;;Louis Vuitton;Computer Programmer;(822 693/3953;temmink@mac.com;047-phone-call.png;
48;Carolina_Casey;Timothy;!2307;}511412;598986;Centereach, NY 11720;;Apple Inc.;Secretary;(887 236/8493;nighthawk@msn.com;048-moon.png;
49;Beckham_Roach;Elias;!4756;}956293;906312;946 Yukon Lane;;Verizon Communications;Bus Driver;(531 597/0196;qmacro@outlook.com;049-robot.png;
50;Seamus_Pugh;Jackson;!4693;}133588;989757;Winter Springs, FL 32708;;Credit Suisse;Systems Analyst;(506 774/1574;stewwy@att.net;050-flower.png;
51;Imani_Calderon;Sullivan;!7598;}90859;46335;330 Poplar Lane;;Wells Fargo;Chef;(639 813/8035;blixem@msn.com;051-happy-10.png;
52;Marisol_Roach;Dezi;!2416;}240325;245515;Titusville, FL 32780;;Yahoo!;Registered Nurse;(883 455/5204;mccurley@optonline.net;052-happy-9.png;
53;Kane_Jacobson;Emerson;!3896;}957754;368276;626 Leatherwood St.;;Porsche;Surveyor;(833 914/4764;jacks@mac.com;053-tired-1.png;
54;Anya_Higgins;Erin;!6573;}581276;372963;Lynn, MA 01902;;Mo_t et Chandon;Urban Planner;(810 945/3933;nwiger@att.net;054-ugly-3.png;
55;Branson_Richard;Linnea;!2225;}886655;446339;9971 N. Rockville Avenue;;Hyundai;Middle School Teacher;(995 610/9002;muadip@me.com;055-tongue-3.png;
56;Kyle_Mathis;Raine;!8966;}340666;490162;Duluth, GA 30096;;Honda Motor Company, Ltd;Speech-Language Pathologist;(394 581/3937;gavinls@yahoo.com;056-vampire.png;
57;Jamiya_Cross;Trevor;!1754;}958143;246531;9542 Sutor Drive;;Beko;Personal Care Aide;(732 375/2363;nicktrig@me.com;057-music-1.png;
58;Selah_Keller;Merle;!4434;}406702;268770;Phoenixville, PA 19460;;Deere & Company;Database administrator;(587 444/2070;lbecchi@me.com;058-popcorn.png;
59;Larry_Watson;Blayne;!4859;}211563;898596;299 E. George St.;;Volkswagen Group;Art Director;(845 438/1802;willg@att.net;059-nurse.png;
60;Braeden .Shea;Abe;!5348;}104186;316595;Westport, CT 06880;;Pampers;Landscaper & Groundskeeper;(320 478/3865;rnelson@yahoo.com;060-sad-13.png;
61;Allisson .Woodard;Joan;!9216;}132859;635754;7671 Tunnel Street;;BlackBerry;Court Reporter;(486 828/8733;roesch@aol.com;061-graduated-1.png;
62;Amy .Garner;Tanner;!6127;}199319;509105;Fair Lawn, NJ 07410;;Jack Daniel's;Bookkeeping clerk;(497 215/8724;pthomsen@verizon.net;062-happy-8.png;
63;Saniyah .Choi;Debree;!1102;}719495;815229;41 Harvard Drive;;Facebook, Inc.;Landscape Architect;(399 887/3591;itstatus@yahoo.ca;063-hungry.png;
64;Reagan .Simmons;Sharon;!2020;}814747;470174;Windsor, CT 06095;;United Parcel Service;College Professor;(205 278/4756;marcs@verizon.net;064-police.png;
65;Coby .Robertson;Juliet;!4083;}683928;133197;7219 Prospect Drive;;Adidas;Respiratory Therapist;(260 814/7458;tellis@yahoo.ca;065-crying-6.png;
66;Dakota .Haney;Marguerite;!1270;}718764;946776;Rolla, MO 65401;;Siemens AG;Mason;(302 844/3480;scotfl@att.net;066-happy-7.png;
67;Malia .Rivas;Louis;!3871;}532007;875661;697 Cypress Lane;;Citigroup;Veterinarian;(449 380/7477;jramio@optonline.net;067-sun.png;
68;Lily .Green;Lynn;!9827;}633690;976908;Arlington Heights, IL 60004;;Amazon.com;Architect;(280 214/8022;mastinfo@gmail.com;068-father-2.png;
69;Reilly .Nielsen;Marcella;!9350;}821275;836368;7762 North County St.;;AT&T;Accountant;(967 763/6475;ateniese@outlook.com;069-happy-6.png;
70;Ryleigh .Brooks;Leonie;!2681;}769203;532086;Holly Springs, NC 27540;;Starbucks;School Counselor;(625 810/5235;ismail@hotmail.com;070-late.png;
71;Brendan .Ewing;Adele;!4152;}160995;626951;7773 Ridge Dr.;;Prada;Computer Support Specialist;+7.975) 483@5566;oechslin@optonline.net;071-heart.png;
72;Cheyenne .Kirk;Julian;!4306;}595389;40675;New Haven, CT 06511;;Gap Inc.;Historian;+7.718) 850@2518;jugalator@att.net;072-sick-3.png;
73;Jacoby .Rojas;Rose;!9367;}402446;7428;551 Spruce St.;;Kia Motors;Computer Hardware Engineer;+7.550) 645@2520;subir@verizon.net;073-sad-12.png;
74;Keshawn .Cummings;Paul;!4536;}115339;249425;Mount Holly, NJ 08060;;Cisco Systems, Inc.;Designer;+7.551) 270@4620;bryam@verizon.net;074-in-love-10.png;
75;Mohammed .Crawford;Amelia;!8478;}213639;327248;116 Woodside St.;;Home Depot;Hairdresser;+7.489) 444@3438;jpflip@optonline.net;075-shocked-2.png;
76;Nancy .Bryan;Devon;!1871;}347268;990658;Bridgewater, NJ 08807;;Vodafone;Lawyer;+7.401) 862@1637;mgemmons@comcast.net;076-happy-5.png;
77;Maxwell .Lynn;Ellory;!1567;}431190;707963;9817 Manor St.;;Hewlett-Packard;Real Estate Agent;+7.507) 625@4900;csilvers@icloud.com;077-shocked-1.png;
78;Zack .Khan;Gabriel;!9952;}372202;670847;West Des Moines, IA 50265;;Herm_s;Customer Service Representative;+7.458) 566@0054;karasik@msn.com;078-cool-3.png;
79;Selina .Walls;Ashten;!8168;}514525;434380;9 Prince Street;;Oracle Corporation;Fitness Trainer;+7.979) 346@6593;wetter@yahoo.ca;079-crying-5.png;
80;Jerry .Garner;Everett;!8239;}393741;255295;Brookline, MA 02446;;Canon;Social Worker;+7.320) 547@9952;thassine@me.com;080-zombie.png;
81;Kaila .Carroll;Grey;!2909;}822374;535063;549 Marvon St.;;KFC;Economist;+7.429) 809@1931;sassen@msn.com;081-pain.png;
82;Sean .Conway;Garrison;!5367;}598823;325417;Dundalk, MD 21222;;General Electric;Writer;+7.464) 285@9954;jandrese@yahoo.ca;082-cyclops.png;
83;Makaila .Cantu;Fernando;!5298;}472573;825989;1 Theatre Drive;;BMW;Logistician;+7.748) 461@4491;tmccarth@live.com;083-sweat.png;
84;Jacquelyn .Mccall;Sherleen;!3605;}373737;964951;Lumberton, NC 28358;;The Walt Disney Company;Environmental scientist;+7.578) 935@1637;gtewari@icloud.com;084-thief.png;
85;Milton .Swanson;Chase;!8146;}691253;765391;673 Hamilton Road;;American Express;Patrol Officer;+7.927) 652@4631;hampton@yahoo.com;085-sad-11.png;
86;Rodolfo .Lynn;Zion;!7932;}623470;852333;Farmingdale, NY 11735;;Burberry;Plumber;+7.595) 615@6057;jesse@me.com;086-kiss-4.png;
87;Paula .Walls;Breean;!7817;}774559;929343;9662 Bay Ave.;;Pizza Hut;Dancer;+7.751) 240@3137;jugalator@me.com;087-father-1.png;
88;Adison .Olson;Henry;!4402;}114286;550100;Hamburg, NY 14075;;H&M;Pharmacist;+7.626) 974@2035;bhima@sbcglobal.net;088-father.png;
89;Jacob .Haynes;Marcellus;!2794;}857949;735633;8604 Fairfield Ave.;;Heineken Brewery;Truck Driver;+7.201) 979@1451;gommix@comcast.net;089-angel-1.png;
90;Corinne .Roberts;Suzan;!7429;}823005;329850;Wisconsin Rapids, WI 54494;;PepsiCo;Medical Secretary;+7.493) 219@3942;symbolic@verizon.net;090-happy-4.png;
91;Aimee .Ewing;Lane;!6306;}285690;230064;56 Vale St.;;Bank of America;Diagnostic Medical Sonographer;+7.407) 485@5030;bruck@outlook.com;091-sad-10.png;
92;Alejandro .Cordova;Hollyn;!9370;}315564;249749;Mount Juliet, TN 37122;;Nintendo;High School Teacher;+7.919) 478@2497;jeteve@optonline.net;092-outrage-1.png;
93;Byron .Haynes;Bram;!1685;}42988;97229;9523 Linda Lane;;Johnson & Johnson;Marriage & Family Therapist;+7.482) 802@9580;jsnover@comcast.net;093-ugly-2.png;
94;Genevieve .Keith;David;!5467;}865823;316039;Tullahoma, TN 37388;;HSBC;Editor;+7.455) 944@6449;hakim@comcast.net;094-ugly-1.png;
95;Dane .Obrien;Shane;!9596;}712362;813449;3 Ashley Ave.;;Kellogg Company;Substance Abuse Counselor;+7.710) 388@2563;dexter@sbcglobal.net;095-scared.png;
96;Nayeli .Church;Kent;!9527;}410913;790714;Ann Arbor, MI 48103;;MasterCard;Public Relations Specialist;+7.759) 452@3846;jlbaumga@hotmail.com;096-tongue-2.png;
97;Ashtyn .Jimenez;Rhett;!6760;}404116;515537;9851 East Prince Street;;Gucci;Computer Systems Analyst;+7.687) 801@1332;djupedal@hotmail.com;097-sad-9.png;
98;Kimberly .Wilkerson;Carelyn;!9484;}965470;262017;Dothan, AL 36301;;Mercedes-Benz;Preschool Teacher;+7.691) 336@3494;daveewart@verizon.net;098-nerd-9.png;
99;Tripp .Curtis;Apollo;!6426;}682782;201742;8329 North Greenview St.;;L'Or_al;Dentist;+7.493) 274@3888;msherr@sbcglobal.net;099-greed-2.png;
100;Eleanor .Zavala;George;!3709;}656706;905558;Hartford, CT 06106;;Global Gillette;Teacher Assistant;+7.983) 470@4528;crusader@sbcglobal.net;100-whistle.png;
101;Harper .Thomas;Jae;!4948;}205524;243277;215 Purple Finch Lane;;Coca-Cola;Musician;+7.436) 951@8996;mdielmann@sbcglobal.net;101-nerd-8.png;
102;Maximo .Stephenson;Dex;!8134;}605243;119462;Annapolis, MD 21401;;Harley-Davidson Motor Company;Paralegal;+7.210) 889@7840;ovprit@me.com;102-muted-4.png;
103;Kiara .James;Jeremy;!7133;}997003;791278;63 53rd Ave.;;Corona;Software Developer;+7.390) 499@7403;calin@att.net;103-in-love-9.png;
104;Isabella .Fuller;Naomi;!4021;}304017;306011;Hagerstown, MD 21740;;Johnnie Walker;Zoologist;+7.805) 721@8540;thowell@yahoo.ca;104-in-love-8.png;
105;Cynthia .Garrison;Matilda;!3516;}398883;21763;2 Greenrose Rd.;;SAP;Medical Assistant;+7.578) 220@5882;mpiotr@yahoo.com;105-kiss-3.png;
106;Donte .Flowers;Brock;!8533;}684076;494549;Maspeth, NY 11378;;Smirnoff;Desktop publisher;+7.415) 631@8358;bester@gmail.com;106-in-love-7.png;
107;Asia .Rivera;Carmden;!1618;}439727;262275;298 N. Hudson Court;;Toyota Motor Corporation;Actor;+7.900) 903@0657;imightb@gmail.com;107-ugly.png;
108;Trace .Hahn;Clelia;!2835;}991998;464652;Howell, NJ 07731;;Caterpillar Inc.;Sports Coach;+7.879) 442@6528;jschauma@icloud.com;108-nerd-7.png;
109;Mohammed .Farley;Levi;!7748;}504230;200443;3 Peg Shop St.;;Avon;Dental Hygienist;+7.649) 374@4690;syrinx@gmail.com;109-nerd-6.png;
110;Nicholas .Velez;Dawn;!4853;}175687;971839;Bayonne, NJ 07002;;Budweiser Stag Brewing Company;School Psychologist;+7.487) 871@5975;konit@aol.com;110-crying-4.png;
111;Jamir .Curtis;Tavian;!3983;}947212;30097;648 Hill Field St.;;IBM;Librarian;+7.503) 572@6773;wonderkid@hotmail.com;111-muted-3.png;
112;Cyrus .Rose;Jacklyn;!7435;}360206;655574;South Richmond Hill, NY 11419;;Chase;Telemarketer;+7.709) 756@6389;pjacklam@verizon.net;112-nerd-5.png;
113;Dakota .Torres;Cash;!4559;}179023;592365;477 Oakland Street;;NTT Data;Interpreter & Translator;+7.931) 652@7478;tokuhirom@live.com;113-kiss-2.png;
114;Matias .Valencia;Reagan;!2102;}137023;279901;Lynnwood, WA 98037;;Intel Corporation;Food Scientist;+7.524) 449@7554;adillon@comcast.net;114-greed-1.png;
115;Rocco .Harding;Gwendolen;!2018;}304278;690136;4 Division Lane;;Sony;Marketing Manager;+7.347) 807@8932;bcevc@yahoo.ca;115-pirate-1.png;
116;Maya .Clark;Evelyn;!4625;}441301;224776;Champlin, MN 55316;;Tesco Corporation;Insurance Agent;+7.675) 694@8839;crobles@me.com;116-music.png;
117;Bryan#Hays;Wade;!8451;}370682;475381;8021 Shadow Brook Dr.;;Microsoft;Farmer;+7.779) 966@8126;tjensen@verizon.net;117-confused-2.png;
118;Jessie#Nelson;Jack;!7035;}527026;89070;Lancaster, NY 14086;;McDonald's;Human Resources Assistant;+7.791) 357@4942;gozer@icloud.com;118-nerd-4.png;
119;Joy#Franklin;Warren;!2846;}798890;15158;7073 Hall Avenue;;VISA;Paramedic;+7.292) 662@7836;brbarret@yahoo.ca;119-greed.png;
120;Carlie#Lang;Rebecca;!9368;}90494;983441;West Babylon, NY 11704;;Zara;Automotive mechanic;+7.952) 374@4396;mcnihil@me.com;120-nerd-3.png;
121;Issac#Hurley;Blanche;!7906;}721186;930722;985B Winding Way Dr.;;Morgan Stanley;Receptionist;+7.758) 849@9991;damian@yahoo.com;121-crying-3.png;
122;Ariel#Sims;Bailey;!9254;}479522;866890;South Windsor, CT 06074;;Mitsubishi;Construction Manager;+7.534) 687@2128;neonatus@aol.com;122-cheering.png;
123;Braedon#Delgado;Oliver;!3627;}384983;821333;570 Old Bayberry Street;;Audi;Physician;+7.642) 548@4829;tellis@icloud.com;123-surprised-6.png;
124;Christian#Suarez;Lee;!5989;}222522;74910;Billerica, MA 01821;;eBay;Mathematician;+7.980) 531@5346;frode@live.com;124-muted-2.png;
125;Lilah#Marks;Anthony;!3584;}358162;882011;9122 South Addison St.;;Ralph Lauren Corporation;Electrical Engineer;+7.628) 326@1104;sjava@aol.com;125-sick-2.png;
126;Jeffrey#Rowland;Gillian;!4406;}46042;450845;East Lansing, MI 48823;;Wal-Mart;Physicist;+7.669) 335@7511;harryh@live.com;126-graduated.png;
127;Hannah#Jordan;Verena;!5511;}931653;233625;14 West Fifth St.;;Panasonic Corporation;Police Officer;+7.399) 344@8840;elflord@me.com;127-angry-2.png;
128;Peyton#Hinton;Benjamin;!8020;}284910;672826;Skokie, IL 60076;;Nike, Inc.;Maintenance & Repair Worker;+7.643) 676@5328;ramollin@mac.com;128-in-love-6.png;
129;Clayton#Forbes;Zachary;!8660;}236405;422773;7267 W. Roehampton St.;;Nissan Motor Co., Ltd.;Statistician;+7.535) 983@7587;kronvold@mac.com;129-cool-2.png;
130;Salvatore#Cabrera;Krystan;!7218;}277801;348484;Harrisonburg, VA 22801;;MTV;Epidemiologist;+7.310) 925@8844;louise@aol.com;130-confused-1.png;
131;Andre#Taylor;Felix;!4813;}710684;233687;82 Oak Meadow Dr.;;Cartier SA;Reporter;+7.457) 847@6033;nanop@verizon.net;131-sad-8.png;
132;Kadin#Mcclain;Riley;!8704;}683064;28020;Cambridge, MA 02138;;Nescaf_;Elementary School Teacher;+7.330) 730@7648;gtewari@sbcglobal.net;132-nerd-2.png;
133;Jaida#Nichols;Lucinda;!9908;}341967;683123;864 Highland Drive;;Allianz;Childcare worker;+7.619) 883@4911;ylchang@mac.com;133-birthday-boy.png;
134;Reid#Church;Candice;!6752;}159699;228468;Alliance, OH 44601;;Ferrari S.p.A.;Loan Officer;+7.482) 744@7133;gommix@yahoo.com;134-surprised-5.png;
135;Karley#Harrington;Kathryn;!8059;}911426;882058;9465 St Paul Avenue;;Kleenex;Drafter;+7.369) 537@4704;uncle@sbcglobal.net;135-selfie.png;
136;Beau#Rivers;Lillian;!8452;}55461;577380;Massillon, OH 44646;;Tiffany & Co.;Cost Estimator;+7.540) 239@8104;smcnabb@live.com;136-tongue-1.png;
137;Riley#Bentley;Hugh;!4452;}331700;279775;7651 South La Sierra Dr.;;3M;Clinical Laboratory Technician;+7.863) 714@2111;shrapnull@aol.com;137-smart-1.png;
138;Ellis#Choi;Julina;!3520;}765331;185983;Centreville, VA 20120;;Shell Oil Company;Electrician;+7.839) 694@4168;djpig@sbcglobal.net;138-smart.png;
139;Jaylyn#Leon;Ellison;!8629;}761047;629180;3 Alton Lane;;Adobe Systems;Referee;+7.983) 868@6473;oechslin@hotmail.com;139-surprised-4.png;
140;Drew#Mayer;Carlen;!2381;}911641;336638;Glen Allen, VA 23059;;IKEA;Judge;+7.325) 574@7514;xnormal@verizon.net;140-3d-glasses.png;
141;Ashleigh#Walters;Claude;!3634;}590673;418814;9441 W. Pineknoll Drive;;Nokia;Security Guard;+7.921) 683@0258;atmarks@icloud.com;141-in-love-5.png;
142;Scott#Dickerson;Arden;!5913;}725569;579121;Florence, SC 29501;;Sprite;Budget analyst;+7.503) 446@7180;makarow@comcast.net;142-sleeping.png;
143;Kolton#Knight;Miriam;!7702;}344201;254837;7070 Shady Street;;Xerox;Painter;+7.467) 243@5219;raides@yahoo.com;143-pirate.png;
144;Izabelle#Boyle;Naveen;!2262;}625946;196936;Lewiston, ME 04240;;Samsung Group;Occupational Therapist;+7.633) 700@7724;hwestiii@mac.com;144-santa-claus.png;
145;Haylie#Singleton;Sue;!1646;}243340;134470;146 East Bank Street;;Google;Physical Therapist;+7.632) 874@7209;scitext@gmail.com;145-wink.png;
146;Sariah#Lin;Olive;!2153;}460491;905724;Billings, MT 59101;;Louis Vuitton;Photographer;+7.368) 599@1877;gward@yahoo.ca;146-in-love-4.png;
147;Chace#Spears;Elodie;!3126;}716773;124048;8723 Cedar Swamp Drive;;Apple Inc.;Cashier;+7.324) 886@1499;bockelboy@outlook.com;147-tired.png;
148;Liam#Frazier;Korin;!8828;}972758;885712;Norman, OK 73072;;Verizon Communications;Educator;+7.374) 356@4166;tubesteak@comcast.net;148-bang.png;
149;Joseph#Stokes;William;!8114;}880420;561214;8419 E. Harvey Drive;;Credit Suisse;Professional athlete;+7.868) 982@2419;krueger@mac.com;149-baby.png;
150;Lorelei#Hurley;Coralie;!8085;}811955;969805;Groton, CT 06340;;Wells Fargo;Janitor;+7.781) 785@5837;skaufman@optonline.net;150-tongue.png;
151;Miguel#Leon;Haiden;!1318;}208906;140377;179 Manchester St.;;Yahoo!;Massage Therapist;(489) 361-6374;tezbo@live.com;151-sick-1.png;
152;Melina#Hamilton;Isaac;!3115;}642377;74940;Chelmsford, MA 01824;;Porsche;Psychologist;(872) 856-7001;crowl@icloud.com;152-outrage.png;
153;Serena#Duke;Arthur;!5150;}553212;190255;70 Cambridge Ave.;;Mo_t et Chandon;IT Manager;(812) 814-4854;plover@hotmail.com;153-injury.png;
154;Kristen#Dillon;Kylie;!4169;}626192;521443;Durham, NC 27703;;Hyundai;Anthropologist;(803) 510-4214;calin@aol.com;154-dead.png;
155;Saniyah#Hawkins;Josiah;!7466;}33192;845900;566 S. Cherry Street;;Honda Motor Company, Ltd;Executive Assistant;(869) 369-9524;timtroyr@live.com;155-rich-1.png;
156;Thalia#Leach;Nicolas;!2646;}768816;584534;Forney, TX 75126;;Beko;Artist;(464) 585-3155;keutzer@yahoo.com;156-sick.png;
157;Irene#Caldwell;Noah;!5732;}336554;660042;83 NE. Hill Dr.;;Deere & Company;Mechanical Engineer;(703) 958-7186;thurston@outlook.com;157-angel.png;
158;Nikhil#Bowen;Glenn;!5254;}555116;207488;Norwood, MA 02062;;Volkswagen Group;Firefighter;(515) 615-0912;mbalazin@att.net;158-nerd-1.png;
159;Jolie#Charles;Matteo;!3285;}403999;586366;556 Summerhouse Street;;Pampers;Carpenter;(854) 941-5210;dkasak@gmail.com;159-crying-2.png;
160;Xavier#Baxter;Joseph;!1373;}588622;962553;Nottingham, MD 21236;;BlackBerry;Actuary;(380) 573-4186;esbeck@comcast.net;160-crying-1.png;
161;Lukas#Dean;Ellice;!1890;}691040;594473;9750 Hawthorne Ave.;;Jack Daniel's;Compliance Officer;(297) 369-0265;novanet@aol.com;161-muted-1.png;
162;Athena#King;Lilibeth;!3307;}217825;236159;Muskogee, OK 74403;;Facebook, Inc.;Computer Systems Administrator;(671) 293-5634;mhouston@me.com;162-surprised-3.png;
163;Adan#Noble;Bree;!3286;}297169;238674;97 Elmwood Street;;United Parcel Service;HR Specialist;(305) 214-6934;bahwi@yahoo.com;163-crying.png;
164;Kiley#Pham;Madeleine;!2401;}289619;924581;Seymour, IN 47274;;Adidas;Recreation & Fitness Worker;(812) 919-9643;chrisj@outlook.com;164-sad-7.png;
165;Steven#Johnston;Kai;!8507;}252786;812525;308 Studebaker Drive;;Siemens AG;Financial Advisor;(754) 769-3349;louise@gmail.com;165-cool-1.png;
166;Ayana#Hart;Dash;!9342;}187671;123262;Algonquin, IL 60102;;Citigroup;Auto Mechanic;(206) 323-2722;qrczak@me.com;166-happy-3.png;
167;Aileen#Copeland;Seth;!1067;}401389;840534;15 Marsh St.;;Amazon.com;Web Developer;(273) 495-7160;arachne@hotmail.com;167-thinking-1.png;
168;Emery#Pitts;Eli;!2273;}445653;327317;Garden City, NY 11530;;AT&T;Civil Engineer;(463) 932-3808;mfburgo@icloud.com;168-muted.png;
169;Vicente#Chavez;Bernice;!6403;}754163;917835;8614 Charles Street;;Starbucks;Chemist;(551) 789-0645;karasik@att.net;169-confused.png;
170;Cherish#Monroe;Vanessa;!3912;}930948;254859;Wake Forest, NC 27587;;Prada;Recreational Therapist;(574) 759-7866;hauma@icloud.com;170-happy-2.png;
171;Karley#Petersen;Rory;!4008;}604291;450994;57 Gulf Avenue;;Gap Inc.;Microbiologist;(852) 802-5653;scitext@me.com;171-thinking.png;
172;Alondra#Le;Clark;!3059;}930219;301844;South Lyon, MI 48178;;Kia Motors;Event Planner;(342) 453-0606;matthijs@live.com;172-nerd.png;
173;Dorian#Bird;Judd;!5208;}664172;833457;694 Linden St.;;Cisco Systems, Inc.;Coach;(434) 574-4540;bryam@icloud.com;173-in-love-3.png;
174;Karley#Goodwin;Noel;!6338;}777372;522008;Missoula, MT 59801;;Home Depot;Radiologic Technologist;(425) 783-2253;tellis@att.net;174-hypnotized.png;
175;Killian#Davidson;Janetta;!8029;}73589;357874;8440 Lyme St.;;Vodafone;Market Research Analyst;(889) 449-4391;makarow@verizon.net;175-cool.png;
176;Ava#Melton;Annabel;!1788;}509266;809566;Zeeland, MI 49464;;Hewlett-Packard;Housekeeper;(825) 301-8250;citadel@msn.com;176-shocked.png;
177;Adam#Horton;Blake;!2735;}502335;933854;7632 Oakwood Rd.;;Herm_s;Computer Programmer;(397) 334-2086;jaxweb@me.com;177-easter.png;
178;Jaydin#Singh;Jordon;!7540;}934686;651032;Pembroke Pines, FL 33028;;Oracle Corporation;Secretary;(241) 570-3040;mcsporran@aol.com;178-surprised-2.png;
179;Lexie#Mckinney;Charles;!9803;}515191;938289;881 Temple St.;;Canon;Bus Driver;(713) 462-8265;tubesteak@mac.com;179-surprised-1.png;
180;Niko#Calderon;Troy;!7220;}353462;163048;South El Monte, CA 91733;;KFC;Systems Analyst;(854) 822-2331;kludge@verizon.net;180-surprised.png;
181;Terrence#Acevedo;Viola;!9575;}262338;906781;9591 Honey Creek St.;;General Electric;Chef;(439) 713-6117;lahvak@hotmail.com;181-furious.png;
182;Madisyn#May;Byron;!7751;}986773;13897;Webster, NY 14580;;BMW;Registered Nurse;(230) 906-8815;raides@sbcglobal.net;182-sad-6.png;
183;Jadon#Ponce;Doran;!9853;}763831;457951;7018 Pilgrim Street;;The Walt Disney Company;Surveyor;(598) 895-2899;gfxguy@aol.com;183-sad-5.png;
184;Jaylen#Thornton;Tobias;!2868;}392150;998746;Bismarck, ND 58501;;American Express;Urban Planner;(429) 678-1872;krueger@msn.com;184-sad-4.png;
185;Brendan#Kelly;Damien;!7019;}883500;537973;697 Westminster St.;;Burberry;Middle School Teacher;(276) 750-1655;shang@yahoo.ca;185-sad-3.png;
186;Helena#Houston;Murphy;!1529;}516117;374799;Harleysville, PA 19438;;Pizza Hut;Speech-Language Pathologist;(805) 953-2020;kalpol@comcast.net;186-angry-1.png;
187;Madalyn@Moon;Carleen;!7513;}42100;519988;959 Birchpond St.;;H&M;Personal Care Aide;(611) 670-2147;kildjean@msn.com;187-rich.png;
188;Marcelo@Johns;Louisa;!5292;}664723;936784;Euless, TX 76039;;Heineken Brewery;Database administrator;(242) 487-7082;treeves@comcast.net;188-sad-2.png;
189;Jay@Campos;Georgina;!1446;}216584;901170;67 Pumpkin Hill Lane;;PepsiCo;Database administrator;(939) 641-7992;timtroyr@icloud.com;189-happy-1.png;
190;Khalil@Sullivan;Rylie;!6353;}693874;525378;Yorktown Heights, NY 10598;;Bank of America;Landscaper & Groundskeeper;(669) 482-2353;world@att.net;190-sad-1.png;
191;Nikhil@Merritt;Claudia;!8638;}615943;809450;5 NE. Newcastle Drive;;Nintendo;Court Reporter;(801) 814-0510;kspiteri@icloud.com;191-sad.png;
192;Blaine@Melendez;Vivian;!5428;}298274;921280;Ithaca, NY 14850;;Johnson & Johnson;Bookkeeping clerk;(362) 338-4199;rtanter@att.net;192-smile.png;
193;Clayton@Munoz;Caylen;!8862;}885055;225076;94 Longbranch St.;;HSBC;Landscape Architect;(897) 655-0021;twoflower@mac.com;193-in-love-2.png;
194;Khalil@Montgomery;Eloise;!2574;}326715;276634;Mount Prospect, IL 60056;;Kellogg Company;College Professor;(710) 859-3522;howler@msn.com;194-happy.png;
195;Bruce@Medina;Elein;!7843;}990305;242952;566 Gulf St.;;MasterCard;Respiratory Therapist;(612) 934-2623;yfreund@sbcglobal.net;195-kiss-1.png;
196;Lesly@Landry;Gregory;!5688;}765287;140550;Wantagh, NY 11793;;Gucci;Mason;(896) 396-9500;nogin@msn.com;196-in-love-1.png;
197;Alyson@Hartman;Lee;!7217;}461000;925983;518 Clinton Ave.;;Mercedes-Benz;Veterinarian;(533) 891-1018;onestab@live.com;197-in-love.png;
198;Ellen@Contreras;Fawn;!1559;}96165;783035;Encino, CA 91316;;L'Or_al;Architect;(309) 279-3798;lcheng@mac.com;198-kiss.png;
199;Sofia@Barr;Kingston;!3480;}736537;897782;370 Ashley Lane;;KFC;Accountant;(483) 664-9876;bdthomas@yahoo.com;199-angry.png;
200;Joyce@Wilkerson;Payten;!6440;}241468;838036;Wausau, WI 54401;;General Electric;School Counselor;(765) 461-9730;hoangle@optonline.net;200-sleepy.png;